YAOGAN-30 11B           
1 49028U 21065C   26068.68875565  .00004364  00000+0  32720-3 0  9992
2 49028  34.9931 159.0081 0000960 264.9738  95.0861 15.02134262253658
STARLINK-30845          
1 58207U 23170B   26068.42956217  .00004349  00000+0  33222-3 0  9997
2 58207  43.0009 197.0622 0000937 266.2361  93.8374 15.03060829130240
